BEIDOU-2 IGSO-1 (C06)   
1 36828U 10036A   24281.45507045 -.00000090  00000+0  00000+0 0  9992
2 36828  54.2540 168.5544 0040753 203.5801 272.7341  1.00250033 52030
BEIDOU-2 G4 (C04)       
1 37210U 10057A   24281.56370792 -.00000100  00000+0  00000+0 0  9992
2 37210   2.1129  69.7750 0008036 165.3072 144.6578  1.00271279 51094
BEIDOU-2 IGSO-2 (C07)   
1 37256U 10068A   24280.92116021 -.00000178  00000+0  00000+0 0  9991
2 37256  48.6773 279.4550 0039949 218.5330 317.4924  1.00267497 50582
BEIDOU-2 IGSO-3 (C08)   
1 37384U 11013A   24280.91377203 -.00000173  00000+0  00000+0 0  9999
2 37384  61.5222  46.0397 0032664 176.4677 230.3244  1.00281043 49474
BEIDOU-2 IGSO-4 (C09)   
1 37763U 11038A   24281.55756500 -.00000044  00000+0  00000+0 0  9996
2 37763  54.5599 171.1891 0128974 228.9773 272.6267  1.00284681 48444
BEIDOU-2 IGSO-5 (C10)   
1 37948U 11073A   24277.98644034 -.00000151  00000+0  00000+0 0  9999
2 37948  48.8162 279.1838 0102763 222.0074 323.1045  1.00268702 46909
BEIDOU-2 G5 (C05)       
1 38091U 12008A   24280.83966642  .00000068  00000+0  00000+0 0  9994
2 38091   2.0307  70.5751 0007265 222.1834  84.2737  1.00273965 46275
BEIDOU-2 M3 (C11)       
1 38250U 12018A   24280.61921251 -.00000059  00000+0  00000+0 0  9996
2 38250  56.2595 325.6307 0025002 262.7451  97.0368  1.86233646 84424
BEIDOU-2 M4 (C12)       
1 38251U 12018B   24280.54929873 -.00000058  00000+0  00000+0 0  9996
2 38251  56.1653 324.8961 0015872 263.0712  96.8140  1.86232062 84420
BEIDOU-2 M6 (C14)       
1 38775U 12050B   24280.25883683  .00000015  00000+0  00000+0 0  9991
2 38775  56.0049  83.4530 0010672 348.2200  11.7709  1.86231141 81780
BEIDOU-2 G6 (C02)       
1 38953U 12059A   24280.84806378 -.00000164  00000+0  00000+0 0  9995
2 38953   2.8399  79.5676 0006579 307.6880  18.0160  1.00275663 43700
BEIDOU-3S IGSO-1S (C31) 
1 40549U 15019A   24280.91067597 -.00000158  00000+0  00000+0 0  9991
2 40549  50.3662 302.8689 0036282 198.1942 299.6203  1.00280972 34868
BEIDOU-3S M2S (C58)     
1 40748U 15037A   24280.21228801 -.00000059  00000+0  00000+0 0  9992
2 40748  55.3944 323.2583 0012893 251.4619 108.4625  1.86229305 62596
BEIDOU-3S M1S (C57)     
1 40749U 15037B   24280.48512172 -.00000057  00000+0  00000+0 0  9997
2 40749  55.3968 323.2355 0003449 314.7806  45.2556  1.86227692 62608
BEIDOU-3S IGSO-2S (C56) 
1 40938U 15053A   24280.91890132 -.00000118  00000+0  00000+0 0  9996
2 40938  50.1891 266.0973 0052552 190.4021 346.7713  1.00281215 33141
BEIDOU-2 IGSO-6 (C13)   
1 41434U 16021A   24280.32480160 -.00000146  00000+0  00000+0 0  9996
2 41434  59.3481  44.2368 0053759 222.3287 320.2140  1.00293290 31271
BEIDOU-2 G7 (C03)       
1 41586U 16037A   24280.99292339 -.00000341  00000+0  00000+0 0  9990
2 41586   1.6433  66.2186 0006599 351.5472  66.2646  1.00265564 30583
BEIDOU-3 M1 (C19)       
1 43001U 17069A   24280.02473923  .00000014  00000+0  00000+0 0  9990
2 43001  56.1551  83.5722 0007078 304.5676  55.3820  1.86231506 47076
BEIDOU-3 M2 (C20)       
1 43002U 17069B   24280.49919906  .00000017  00000+0  00000+0 0  9991
2 43002  56.1544  83.5920 0005398 343.0182  16.9796  1.86231050 47071
BEIDOU-3 M7 (C27)       
1 43107U 18003A   24280.78428799 -.00000058  00000+0  00000+0 0  9999
2 43107  54.8523 323.7808 0002394  82.5987 277.4918  1.86232564 45848
BEIDOU-3 M8 (C28)       
1 43108U 18003B   24280.72565406 -.00000058  00000+0  00000+0 0  9991
2 43108  54.8453 323.7678 0005008 255.2116 104.7964  1.86231009 45840
BEIDOU-3 M4 (C22)       
1 43207U 18018A   24280.09285013  .00000014  00000+0  00000+0 0  9991
2 43207  56.1137  83.6552 0004503  30.3861 329.6565  1.86231445 45215
BEIDOU-3 M3 (C21)       
1 43208U 18018B   24280.15948374  .00000015  00000+0  00000+0 0  9996
2 43208  56.1131  83.6573 0004960 325.0735  34.9104  1.86231448 45212
BEIDOU-3 M9 (C29)       
1 43245U 18029A   24281.45366215 -.00000051  00000+0  00000+0 0  9992
2 43245  54.7320 321.4548 0002166 244.3373 115.7011  1.86232828 44395
BEIDOU-3 M10 (C30)      
1 43246U 18029B   24281.38317446 -.00000051  00000+0  00000+0 0  9997
2 43246  54.7292 321.4844 0002924 344.4270  15.6250  1.86232972 44385
BEIDOU-2 IGSO-7 (C16)   
1 43539U 18057A   24280.61646436 -.00000102  00000+0  00000+0 0  9999
2 43539  55.1470 168.4192 0077967 233.0489 309.4955  1.00278132 22939
BEIDOU-3 M5 (C23)       
1 43581U 18062A   24281.07089516  .00000025  00000+0  00000+0 0  9996
2 43581  54.1207 203.3267 0003716 300.6252  59.3658  1.86228803 42123
BEIDOU-3 M6 (C24)       
1 43582U 18062B   24280.39921120  .00000025  00000+0  00000+0 0  9997
2 43582  54.1204 203.3391 0005895  20.1855 339.8626  1.86229921 42114
BEIDOU-3 M12 (C26)      
1 43602U 18067A   24280.33250396  .00000025  00000+0  00000+0 0  9999
2 43602  54.2116 202.0326 0007863  26.0423 334.0244  1.86227738 41595
BEIDOU-3 M11 (C25)      
1 43603U 18067B   24281.00282315  .00000025  00000+0  00000+0 0  9991
2 43603  54.2087 201.9747 0004641  16.1771 343.8678  1.86227235 41631
BEIDOU-3 M13 (C32)      
1 43622U 18072A   24280.96439251  .00000019  00000+0  00000+0 0  9998
2 43622  56.0862  83.1538 0003895 301.7989  58.1782  1.86231359 41145
BEIDOU-3 M14 (C33)      
1 43623U 18072B   24280.29290220  .00000015  00000+0  00000+0 0  9992
2 43623  56.0873  83.1693 0002551   4.5852 355.4327  1.86231352 41124
BEIDOU-3 M16 (C35)      
1 43647U 18078A   24281.52891984 -.00000051  00000+0  00000+0 0  9996
2 43647  54.6281 321.5411 0005949   9.8325 350.2400  1.86232323 40663
BEIDOU-3 M15 (C34)      
1 43648U 18078B   24280.58414690 -.00000056  00000+0  00000+0 0  9992
2 43648  54.6245 321.5763 0002577   9.8001 350.2670  1.86232359 40656
BEIDOU-3 G1 (C59)       
1 43683U 18085A   24281.56096718 -.00000265  00000+0  00000+0 0  9997
2 43683   2.4633 105.4795 0002719  27.9367 225.2438  1.00276396 21854
BEIDOU-3 M17 (C36)      
1 43706U 18093A   24281.27293262  .00000024  00000+0  00000+0 0  9995
2 43706  54.2035 203.2665 0008623 291.0668  68.8695  1.86228442 40010
BEIDOU-3 M18 (C37)      
1 43707U 18093B   24281.13735998  .00000025  00000+0  00000+0 0  9999
2 43707  54.2044 203.2629 0007429 322.6283  37.3481  1.86230001 40027
BEIDOU-3 IGSO-1 (C38)   
1 44204U 19023A   24280.79639019 -.00000206  00000+0  00000+0 0  9996
2 44204  57.8106  44.0624 0024701 206.8606 170.9801  1.00268378  1018
BEIDOU-2 G8 (C01)       
1 44231U 19027A   24281.53625512 -.00000235  00000+0  00000+0 0  9998
2 44231   1.7505  74.4425 0003398 184.4407  95.4066  1.00272805 19882
BEIDOU-3 IGSO-2 (C39)   
1 44337U 19035A   24281.54590663 -.00000107  00000+0  00000+0 0  9991
2 44337  55.1816 164.2858 0034644 201.8874 325.4634  1.00262361 19507
BEIDOU-3 M24 (C46)      
1 44542U 19061A   24281.20721744  .00000025  00000+0  00000+0 0  9995
2 44542  54.4313 203.5770 0008617 359.5488   0.4780  1.86229447 34288
BEIDOU-3 M23 (C45)      
1 44543U 19061B   24280.53573635  .00000025  00000+0  00000+0 0  9995
2 44543  54.4299 203.5686 0005615 347.8598 194.5438  1.86229698 34277
BEIDOU-3 IGSO-3 (C40)   
1 44709U 19073A   24281.42114614 -.00000156  00000+0  00000+0 0  9995
2 44709  55.8609 287.5340 0041249 190.9929 168.9204  1.00268253 18249
BEIDOU-3 M22 (C44)      
1 44793U 19078A   24280.51519884 -.00000056  00000+0  00000+0 0  9999
2 44793  54.4764 321.4947 0004602  15.6173 344.4589  1.86232241 33130
BEIDOU-3 M21 (C43)      
1 44794U 19078B   24281.18165562 -.00000053  00000+0  00000+0 0  9991
2 44794  54.4494 321.4451 0002734 357.8759   2.1839  1.86232695 33146
BEIDOU-3 M19 (C41)      
1 44864U 19090A   24281.21917694  .00000021  00000+0  00000+0 0  9992
2 44864  56.0203  83.3107 0015458 279.4904 298.0629  1.86231755 32711
BEIDOU-3 M20 (C42)      
1 44865U 19090B   24280.71793425  .00000017  00000+0  00000+0 0  9996
2 44865  56.0213  83.3609 0012937 294.6150  36.5815  1.86231725 32697
BEIDOU-3 G2 (C60)       
1 45344U 20017A   24281.12993372 -.00000129  00000+0  00000+0 0  9994
2 45344   2.4642  33.5481 0003618 189.8312 279.7191  1.00271582 17071
BEIDOU-3 G3 (C61)       
1 45807U 20040A   24281.06451281 -.00000342  00000+0  00000+0 0  9992
2 45807   0.9866  53.0153 0002790 307.6302 149.3826  1.00273433 15889
BEIDOU-3 G4 (C62)       
1 56564U 23066A   24280.68243854 -.00000102  00000+0  00000+0 0  9991
2 56564   1.8514 288.6094 0005795 236.8873 256.0043  1.00273503  5193
BEIDOU-3 M28 (C50)      
1 58654U 23207A   24280.19061187  .00000012  00000+0  00000+0 0  9992
2 58654  55.2043  83.2832 0000650 197.9606 162.0535  1.86232229  5310
BEIDOU-3 M26 (C48)      
1 58655U 23207B   24279.98980282  .00000011  00000+0  00000+0 0  9993
2 58655  55.2065  83.2756 0002100 214.6817 145.3213  1.86231806  5297
